{"fetched_at":"2026-03-29T02:12:04Z","count":15717,"tles":[{"name":"STARLINK-11375 [DTC]","line1":"1 61577U 24187D   26087.60796237 -.00002316  00000+0 -14262-4 0  9993","line2":"2 61577  53.1591 202.8441 0001022 339.3738  20.7238 15.69718783 83721","category":"Starlink"}]}